[
  {
    "name": "Sun",
    "type": "star",
    "mass": 1.989e+31,
    "radius": 695700000,
    "semiMajorAxis": 0,
    "eccentricity": 0,
    "inclination": 0,
    "longitudeOfAscendingNode": 0,
    "argumentOfPeriapsis": 0,
    "meanAnomaly": 0,
    "parentBodyId": null,
    "color": "#ffcc00",
    "id": 1
  },
  {
    "name": "Mercury",
    "type": "planet",
    "mass": 3.3011e+23,
    "radius": 2439700,
    "semiMajorAxis": 579090500,
    "eccentricity": 0.20563,
    "inclination": 0.12226031410220278,
    "longitudeOfAscendingNode": 0.8435350807813794,
    "argumentOfPeriapsis": 0.5083096913508285,
    "meanAnomaly": 3.0507657193160083,
    "parentBodyId": 1,
    "color": "#b5b5b5",
    "id": 2,
    "currentPositionX": -591140456.9075576,
    "currentPositionY": -129459140.17264721,
    "currentPositionZ": 43682987.478835404
  },
  {
    "name": "Venus",
    "type": "planet",
    "mass": 4.8675e+24,
    "radius": 6051800,
    "semiMajorAxis": 1082080000,
    "eccentricity": 0.00677,
    "inclination": 0.05924659772234911,
    "longitudeOfAscendingNode": 1.338318470429252,
    "argumentOfPeriapsis": 0.9579065066645678,
    "meanAnomaly": 0.8746717546369582,
    "parentBodyId": 1,
    "color": "#e6e6e6",
    "id": 3,
    "currentPositionX": 379748574.1922697,
    "currentPositionY": -1019914940.6631684,
    "currentPositionZ": -35857148.51627233
  },
  {
    "name": "Earth",
    "type": "planet",
    "mass": 5.97237e+24,
    "radius": 6371000,
    "semiMajorAxis": 1495980230,
    "eccentricity": 0.0167086,
    "inclination": 8.726646259971647e-7,
    "longitudeOfAscendingNode": -0.19653524388177426,
    "argumentOfPeriapsis": 1.9933026650579555,
    "meanAnomaly": 6.259047403624505,
    "parentBodyId": 1,
    "color": "#3498db",
    "id": 4,
    "currentPositionX": -1463659638.352468,
    "currentPositionY": 256190048.7653913,
    "currentPositionZ": -30.154285259241476
  },
  {
    "name": "Moon",
    "type": "moon",
    "mass": 7.342e+22,
    "radius": 1737400,
    "semiMajorAxis": 38474800,
    "eccentricity": 0.0549,
    "inclination": 0.08979719001510825,
    "longitudeOfAscendingNode": 2.1830578283945075,
    "argumentOfPeriapsis": 5.552765015219959,
    "meanAnomaly": 2.0135060728802663,
    "parentBodyId": 4,
    "color": "#d0d0d0",
    "id": 5,
    "currentPositionX": -33397453.221981898,
    "currentPositionY": -21239222.887586076,
    "currentPositionZ": 3559922.60698017
  },
  {
    "name": "Mars",
    "type": "planet",
    "mass": 6.4171e+23,
    "radius": 3389500,
    "semiMajorAxis": 2279392000,
    "eccentricity": 0.0934,
    "inclination": 0.03228859116189509,
    "longitudeOfAscendingNode": 0.8649502707033497,
    "argumentOfPeriapsis": 5.000403213548794,
    "meanAnomaly": 0.3381226359888615,
    "parentBodyId": 1,
    "color": "#e74c3c",
    "id": 6,
    "currentPositionX": 1656692286.5949059,
    "currentPositionY": 1403424882.0837383,
    "currentPositionZ": -11320324.043274246
  },
  {
    "name": "Phobos",
    "type": "moon",
    "mass": 10659000000000000,
    "radius": 11266,
    "semiMajorAxis": 1406400,
    "eccentricity": 0.0151,
    "inclination": 0.01907644872429802,
    "longitudeOfAscendingNode": 0.2957634950429591,
    "argumentOfPeriapsis": 2.742191507563411,
    "meanAnomaly": 2.618988715665131,
    "parentBodyId": 6,
    "color": "#8B4513",
    "id": 7,
    "currentPositionX": 1345229.8926967878,
    "currentPositionY": 471738.9033563583,
    "currentPositionZ": 1128.726598554611
  },
  {
    "name": "Jupiter",
    "type": "planet",
    "mass": 1.8982e+27,
    "radius": 69911000,
    "semiMajorAxis": 7785702000,
    "eccentricity": 0.0489,
    "inclination": 0.02274164015348611,
    "longitudeOfAscendingNode": 1.7534275797235832,
    "argumentOfPeriapsis": 4.7798808625593106,
    "meanAnomaly": 0.34941491624926474,
    "parentBodyId": 1,
    "color": "#f39c12",
    "id": 8,
    "currentPositionX": 5484947064.624005,
    "currentPositionY": 5033961530.088217,
    "currentPositionZ": -143478650.85390726
  },
  {
    "name": "Europa",
    "type": "moon",
    "mass": 4.8e+22,
    "radius": 1560800,
    "semiMajorAxis": 67090000,
    "eccentricity": 0.009,
    "inclination": 0.008203047484373348,
    "longitudeOfAscendingNode": 1.7697638615222502,
    "argumentOfPeriapsis": 2.1031217486531673,
    "meanAnomaly": 3.490658503988659,
    "parentBodyId": 8,
    "color": "#f5f5dc",
    "id": 9,
    "currentPositionX": -42714838.25820938,
    "currentPositionY": 51759665.048975766,
    "currentPositionZ": 259562.11373178056
  },
  {
    "name": "Saturn",
    "type": "planet",
    "mass": 5.6834e+26,
    "radius": 58232000,
    "semiMajorAxis": 14335300000,
    "eccentricity": 0.0565,
    "inclination": 0.04337143191205908,
    "longitudeOfAscendingNode": 1.9838284942793547,
    "argumentOfPeriapsis": 5.923507854928594,
    "meanAnomaly": 5.533042794672423,
    "parentBodyId": 1,
    "color": "#f1c40f",
    "id": 10,
    "currentPositionX": 9207924457.83025,
    "currentPositionY": 10186756898.967487,
    "currentPositionZ": -543457691.7096373
  },
  {
    "name": "Titan",
    "type": "moon",
    "mass": 1.3452e+23,
    "radius": 2574730,
    "semiMajorAxis": 122187000,
    "eccentricity": 0.0288,
    "inclination": 0.006083170574901036,
    "longitudeOfAscendingNode": 0.4897393881096088,
    "argumentOfPeriapsis": 3.150877805210403,
    "meanAnomaly": 3.0688124237816297,
    "parentBodyId": 10,
    "color": "#E49B0F",
    "id": 11,
    "currentPositionX": 97514020.47552484,
    "currentPositionY": 79229428.06789815,
    "currentPositionZ": 146279.21430584785
  },
  {
    "name": "Alpha Station",
    "type": "station",
    "mass": 500000,
    "radius": 100,
    "semiMajorAxis": 1015650,
    "eccentricity": 0.0002,
    "inclination": 0.01577777643802874,
    "longitudeOfAscendingNode": 0,
    "argumentOfPeriapsis": 0,
    "meanAnomaly": 0,
    "parentBodyId": 4,
    "color": "#ffffff",
    "id": 12,
    "currentPositionX": -40588.59193474251,
    "currentPositionY": -1014720.4206579031,
    "currentPositionZ": -16011.360579543509
  }
]